{"type": "FeatureCollection", "features": [ {"type": "Feature", "properties": {"norad_id": 39574, "name": "GPM-CORE", "group": "resource", "lat": 31.933618749583392, "lon": 10.192079799939508, "alt_km": 431.3347770553655, "timestamp": "2025-12-14T09:36:22.691536+00:00", "meta": {"OBJECT_NAME": "GPM-CORE", "OBJECT_ID": "2014-009C", "EPOCH": "2025-12-13T15:53:20.869440", "MEAN_MOTION": 15.44484417, "ECCENTRICITY": 0.00097938, "INCLINATION": 64.9734, "RA_OF_ASC_NODE": 209.592, "ARG_OF_PERICENTER": 245.543, "MEAN_ANOMALY": 114.469, "EPHEMERIS_TYPE": 0, "CLASSIFICATION_TYPE": "U", "NORAD_CAT_ID": 39574, "ELEMENT_SET_NO": 999, "REV_AT_EPOCH": 66915, "BSTAR": 0.00021260046, "MEAN_MOTION_DOT": 9.679e-05, "MEAN_MOTION_DDOT": 0}, "tle": {"line1": "1 39574U 14009C   25347.66204710  .00009679  00000+0  21260-3 0  9993", "line2": "2 39574  64.9734 209.5920 0009793 245.5430 114.4690 15.44484417669155"}}, "geometry": {"type": "Point", "coordinates": [10.192079799939508, 31.933618749583392]}}, {"type": "Feature", "properties": {"norad_id": 39634, "name": "SENTINEL-1A", "group": "resource", "lat": -21.60933915625266, "lon": 170.35048233382975, "alt_km": 701.5200819220381, "timestamp": "2025-12-14T09:36:22.691547+00:00", "meta": {"OBJECT_NAME": "SENTINEL-1A", "OBJECT_ID": "2014-016A", "EPOCH": "2025-12-13T16:13:39.620928", "MEAN_MOTION": 14.59200755, "ECCENTRICITY": 0.00012496, "INCLINATION": 98.1808, "RA_OF_ASC_NODE": 352.9037, "ARG_OF_PERICENTER": 83.635, "MEAN_ANOMALY": 276.4992, "EPHEMERIS_TYPE": 0, "CLASSIFICATION_TYPE": "U", "NORAD_CAT_ID": 39634, "ELEMENT_SET_NO": 999, "REV_AT_EPOCH": 62296, "BSTAR": 4.8174499e-05, "MEAN_MOTION_DOT": 1.81e-06, "MEAN_MOTION_DDOT": 0}, "tle": {"line1": "1 39634U 14016A   25347.67615302  .00000181  00000+0  48174-4 0  9995", "line2": "2 39634  98.1808 352.9037 0001249  83.6350 276.4992 14.59200755622963"}}, "geometry": {"type": "Point", "coordinates": [170.35048233382975, -21.60933915625266]}}, {"type": "Feature", "properties": {"norad_id": 39731, "name": "KAZEOSAT 1", "group": "resource", "lat": 71.93315584112078, "lon": 33.53595215274809, "alt_km": 743.9931511093646, "timestamp": "2025-12-14T09:36:22.691558+00:00", "meta": {"OBJECT_NAME": "KAZEOSAT 1", "OBJECT_ID": "2014-024A", "EPOCH": "2025-12-13T16:36:44.416800", "MEAN_MOTION": 14.42064152, "ECCENTRICITY": 0.00011132, "INCLINATION": 98.3429, "RA_OF_ASC_NODE": 59.5777, "ARG_OF_PERICENTER": 95.7186, "MEAN_ANOMALY": 264.4131, "EPHEMERIS_TYPE": 0, "CLASSIFICATION_TYPE": "U", "NORAD_CAT_ID": 39731, "ELEMENT_SET_NO": 999, "REV_AT_EPOCH": 61182, "BSTAR": 0.00015786587, "MEAN_MOTION_DOT": 4.76e-06, "MEAN_MOTION_DDOT": 0}, "tle": {"line1": "1 39731U 14024A   25347.69218075  .00000476  00000+0  15787-3 0  9990", "line2": "2 39731  98.3429  59.5777 0001113  95.7186 264.4131 14.42064152611820"}}, "geometry": {"type": "Point", "coordinates": [33.53595215274809, 71.93315584112078]}}, {"type": "Feature", "properties": {"norad_id": 39766, "name": "ALOS-2", "group": "resource", "lat": -1.513930054796118, "lon": -96.98911694406002, "alt_km": 634.1057235443623, "timestamp": "2025-12-14T09:36:22.691569+00:00", "meta": {"OBJECT_NAME": "ALOS-2", "OBJECT_ID": "2014-029A", "EPOCH": "2025-12-12T12:57:47.930112", "MEAN_MOTION": 14.79474197, "ECCENTRICITY": 0.00014, "INCLINATION": 97.9217, "RA_OF_ASC_NODE": 81.3886, "ARG_OF_PERICENTER": 99.6977, "MEAN_ANOMALY": 260.4393, "EPHEMERIS_TYPE": 0, "CLASSIFICATION_TYPE": "U", "NORAD_CAT_ID": 39766, "ELEMENT_SET_NO": 999, "REV_AT_EPOCH": 62398, "BSTAR": 0.00062702076, "MEAN_MOTION_DOT": 4.634e-05, "MEAN_MOTION_DDOT": 0}, "tle": {"line1": "1 39766U 14029A   25346.54013808  .00004634  00000+0  62702-3 0  9992", "line2": "2 39766  97.9217  81.3886 0001400  99.6977 260.4393 14.79474197623982"}}, "geometry": {"type": "Point", "coordinates": [-96.98911694406002, -1.513930054796118]}}, {"type": "Feature", "properties": {"norad_id": 40010, "name": "KAZEOSAT 2", "group": "resource", "lat": 53.90650424727345, "lon": 23.111870722890927, "alt_km": 606.6485989087705, "timestamp": "2025-12-14T09:36:22.691580+00:00", "meta": {"OBJECT_NAME": "KAZEOSAT 2", "OBJECT_ID": "2014-033A", "EPOCH": "2025-12-13T15:15:23.863104", "MEAN_MOTION": 14.85169323, "ECCENTRICITY": 0.00077376, "INCLINATION": 97.5508, "RA_OF_ASC_NODE": 191.904, "ARG_OF_PERICENTER": 203.5377, "MEAN_ANOMALY": 156.5486, "EPHEMERIS_TYPE": 0, "CLASSIFICATION_TYPE": "U", "NORAD_CAT_ID": 40010, "ELEMENT_SET_NO": 999, "REV_AT_EPOCH": 62141, "BSTAR": 9.8853829e-05, "MEAN_MOTION_DOT": 7.97e-06, "MEAN_MOTION_DDOT": 0}, "tle": {"line1": "1 40010U 14033A   25347.63569286  .00000797  00000+0  98854-4 0  9992", "line2": "2 40010  97.5508 191.9040 0007737 203.5377 156.5486 14.85169323621417"}}, "geometry": {"type": "Point", "coordinates": [23.111870722890927, 53.90650424727345]}}, {"type": "Feature", "properties": {"norad_id": 40011, "name": "HODOYOSHI-4", "group": "resource", "lat": -46.71085385801124, "lon": -10.88286590651734, "alt_km": 598.8571304792213, "timestamp": "2025-12-14T09:36:22.691590+00:00", "meta": {"OBJECT_NAME": "HODOYOSHI-4", "OBJECT_ID": "2014-033B", "EPOCH": "2025-12-13T14:49:45.983712", "MEAN_MOTION": 14.87488524, "ECCENTRICITY": 0.00232519, "INCLINATION": 97.5417, "RA_OF_ASC_NODE": 176.4585, "ARG_OF_PERICENTER": 197.4042, "MEAN_ANOMALY": 162.6381, "EPHEMERIS_TYPE": 0, "CLASSIFICATION_TYPE": "U", "NORAD_CAT_ID": 40011, "ELEMENT_SET_NO": 999, "REV_AT_EPOCH": 62121, "BSTAR": 0.00039967139, "MEAN_MOTION_DOT": 3.588e-05, "MEAN_MOTION_DDOT": 0}, "tle": {"line1": "1 40011U 14033B   25347.61789333  .00003588  00000+0  39967-3 0  9998", "line2": "2 40011  97.5417 176.4585 0023251 197.4042 162.6381 14.87488524621217"}}, "geometry": {"type": "Point", "coordinates": [-10.88286590651734, -46.71085385801124]}}, {"type": "Feature", "properties": {"norad_id": 40013, "name": "DEIMOS-2", "group": "resource", "lat": 56.19578715762247, "lon": -147.36735568559206, "alt_km": 582.9317703399711, "timestamp": "2025-12-14T09:36:22.691601+00:00", "meta": {"OBJECT_NAME": "DEIMOS-2", "OBJECT_ID": "2014-033D", "EPOCH": "2025-12-13T15:39:30.003840", "MEAN_MOTION": 14.9297838, "ECCENTRICITY": 8.181e-05, "INCLINATION": 97.6062, "RA_OF_ASC_NODE": 223.4222, "ARG_OF_PERICENTER": 110.5053, "MEAN_ANOMALY": 249.6254, "EPHEMERIS_TYPE": 0, "CLASSIFICATION_TYPE": "U", "NORAD_CAT_ID": 40013, "ELEMENT_SET_NO": 999, "REV_AT_EPOCH": 61003, "BSTAR": 0.00033363648, "MEAN_MOTION_DOT": 3.412e-05, "MEAN_MOTION_DDOT": 0}, "tle": {"line1": "1 40013U 14033D   25347.65243060  .00003412  00000+0  33364-3 0  9997", "line2": "2 40013  97.6062 223.4222 0000818 110.5053 249.6254 14.92978380610032"}}, "geometry": {"type": "Point", "coordinates": [-147.36735568559206, 56.19578715762247]}}, {"type": "Feature", "properties": {"norad_id": 40015, "name": "HODOYOSHI-3", "group": "resource", "lat": 43.34398472818887, "lon": -18.578876664984705, "alt_km": 616.7899730052104, "timestamp": "2025-12-14T09:36:22.691611+00:00", "meta": {"OBJECT_NAME": "HODOYOSHI-3", "OBJECT_ID": "2014-033F", "EPOCH": "2025-12-13T10:20:57.541920", "MEAN_MOTION": 14.84811259, "ECCENTRICITY": 0.00319282, "INCLINATION": 97.6197, "RA_OF_ASC_NODE": 153.2361, "ARG_OF_PERICENTER": 245.5965, "MEAN_ANOMALY": 114.1918, "EPHEMERIS_TYPE": 0, "CLASSIFICATION_TYPE": "U", "NORAD_CAT_ID": 40015, "ELEMENT_SET_NO": 999, "REV_AT_EPOCH": 62005, "BSTAR": 0.00031690067, "MEAN_MOTION_DOT": 2.662e-05, "MEAN_MOTION_DDOT": 0}, "tle": {"line1": "1 40015U 14033F   25347.43122155  .00002662  00000+0  31690-3 0  9992", "line2": "2 40015  97.6197 153.2361 0031928 245.5965 114.1918 14.84811259620052"}}, "geometry": {"type": "Point", "coordinates": [-18.578876664984705, 43.34398472818887]}}, {"type": "Feature", "properties": {"norad_id": 40053, "name": "SPOT 7", "group": "resource", "lat": 73.43739763297356, "lon": 21.86337257114663, "alt_km": 682.6543385784735, "timestamp": "2025-12-14T09:36:22.691621+00:00", "meta": {"OBJECT_NAME": "SPOT 7", "OBJECT_ID": "2014-034A", "EPOCH": "2025-12-13T16:49:19.794720", "MEAN_MOTION": 14.60737012, "ECCENTRICITY": 0.00015714, "INCLINATION": 98.0904, "RA_OF_ASC_NODE": 49.7539, "ARG_OF_PERICENTER": 86.9278, "MEAN_ANOMALY": 273.2102, "EPHEMERIS_TYPE": 0, "CLASSIFICATION_TYPE": "U", "NORAD_CAT_ID": 40053, "ELEMENT_SET_NO": 999, "REV_AT_EPOCH": 61005, "BSTAR": 0.00023764077, "MEAN_MOTION_DOT": 1.113e-05, "MEAN_MOTION_DDOT": 0}, "tle": {"line1": "1 40053U 14034A   25347.70092355  .00001113  00000+0  23764-3 0  9996", "line2": "2 40053  98.0904  49.7539 0001571  86.9278 273.2102 14.60737012610055"}}, "geometry": {"type": "Point", "coordinates": [21.86337257114663, 73.43739763297356]}}, {"type": "Feature", "properties": {"norad_id": 40072, "name": "SKYSAT-B", "group": "resource", "lat": 10.419972122742928, "lon": 113.74363999685824, "alt_km": 603.8739367510161, "timestamp": "2025-12-14T09:36:22.691631+00:00", "meta": {"OBJECT_NAME": "SKYSAT-B", "OBJECT_ID": "2014-037D", "EPOCH": "2025-12-13T13:28:20.571744", "MEAN_MOTION": 14.87331868, "ECCENTRICITY": 0.00062152, "INCLINATION": 98.3608, "RA_OF_ASC_NODE": 291.3108, "ARG_OF_PERICENTER": 147.5527, "MEAN_ANOMALY": 212.6071, "EPHEMERIS_TYPE": 0, "CLASSIFICATION_TYPE": "U", "NORAD_CAT_ID": 40072, "ELEMENT_SET_NO": 999, "REV_AT_EPOCH": 61836, "BSTAR": 0.00025936995, "MEAN_MOTION_DOT": 2.282e-05, "MEAN_MOTION_DDOT": 0}, "tle": {"line1": "1 40072U 14037D   25347.56134921  .00002282  00000+0  25937-3 0  9992", "line2": "2 40072  98.3608 291.3108 0006215 147.5527 212.6071 14.87331868618360"}}, "geometry": {"type": "Point", "coordinates": [113.74363999685824, 10.419972122742928]}}]}